[{"id":1, "zip_code":"01", "city_code":"01710", "title":"Thoiry", "city":"thoiry", "adress":"Centre Commercial Val Thoiry, Chemin Pre Jacquet", "phone_number":"04 50 99 49 99"},
 {"id":2, "zip_code":"06", "city_code":"06200", "title":"Nice", "city":"nice", "adress":"Quartier Lingostiere", "phone_number":"04 93 29 83 83"},
 {"id":3, "zip_code":"06", "city_code":"06220", "title":"Valauris", "city":"vallauris", "adress":"Chemin Fuguiere", "phone_number":"04 97 21 82 00"},
 {"id":4, "zip_code":"08", "city_code":"08000", "title":"Charleville Mézières", "city":"charleville mézières", "adress":"Centre Commercial La Croisette, rue Paulin Pichier", "phone_number":"03 24 33 69 00"},
 {"id":5, "zip_code":"13", "city_code":"13400", "title":"Aubagne", "city":"aubagne", "adress":"ZAC Pastre, 2 Avenue Baumone", "phone_number":"04 42 84 60 00"},
 {"id":6, "zip_code":"13", "city_code":"13480", "title":"Cabries", "city":"cabries", "adress":"Centre Commercial Plan de Campagne", "phone_number":"04 42 10 61 10"},
 {"id":7, "zip_code":"13", "city_code":"13011", "title":"Marseille", "city":"marseille", "adress":"Avenue François Chardigny", "phone_number":"04 91 19 56 00"},
 {"id":8, "zip_code":"13", "city_code":"13464", "title":"Marseille Cedex 16", "city":"marseille cedex 16", "adress":"Centre Comercial Grand Littoral, B.P 153", "phone_number":"04 95 06 36 00"},
 {"id":9, "zip_code":"13", "city_code":"13500", "title":"Martigues", "city":"martigues", "adress":"Centre Commercial Canto Perdrix, Chemin Barboussade", "phone_number":"04 42 42 11 11"},
 {"id":10, "zip_code":"14", "city_code":"14120", "title":"Mondeville", "city":"mondeville", "adress":"Route de Paris, Z.A Paul Spriet", "phone_number":"02 31 82 40 33"},
 {"id":11, "zip_code":"16", "city_code":"16800", "title":"Soyaux", "city":"soyaux", "adress":"ZI Les Effamiers", "phone_number":"05 46 68 32 32"},
 {"id":12, "zip_code":"17", "city_code":"17138", "title":"Puilboreau", "city":"puilboreau", "adress":"ZI de Beaulieu, 1 rue de Belgique", "phone_number":"02 48 27 53 60"},
 {"id":13, "zip_code":"18", "city_code":"18230", "title":"Saint Doulchard", "city":"saint doulchard", "adress":"579 route d'Orléans, RN 76", "phone_number":"02 48 27 53 60"},
 {"id":14, "zip_code":"19", "city_code":"19360", "title":"Malemort sur Corrèze", "city":"malemort sur corrèze", "adress":"Avenue Léonce Bourliaguet", "phone_number":"05 55 17 42 00"},
 {"id":15, "zip_code":"20", "city_code":"20600", "title":"Furiani", "city":"furiani", "adress":"Centre Commercial La Rocade", "phone_number":"04 95 30 93 70"},
 {"id":16, "zip_code":"21", "city_code":"21800", "title":"Quetigny", "city":"quetigny", "adress":"ZAC des Charrieres, Boulevard Grand Marche", "phone_number":"03 80 48 36 00"},
 {"id":17, "zip_code":"22", "city_code":"22360", "title":"Langueux", "city":"langueux", "adress":"Espace Commercial, 9 rue Ambroise Paré", "phone_number":"02 93 52 42 10"},
 {"id":18, "zip_code":"24", "city_code":"14650", "title":"Chancelade", "city":"chancelade", "adress":"Les Gabardes, Centre Commercial Auchan, Chemin Pretre", "phone_number":"05 53 02 29 20"},
 {"id":19, "zip_code":"25", "city_code":"25000", "title":"Besançon", "city":"besançon", "adress":"ZAC Chateau Farine, rue Guillaume Apollinaire", "phone_number":"03 81 41 71 00"},
 {"id":20, "zip_code":"26", "city_code":"26000", "title":"Valence", "city":"valence", "adress":"Chemin Motte a Mauboule", "phone_number":"04 75 78 57 00"},
 {"id":21, "zip_code":"28", "city_code":"28000", "title":"Chartres", "city":"chartres", "adress":"Centre Commercial la Madeleine, Avenue des Anciens Combattants AFN", "phone_number":"02 37 28 48 00"},
 {"id":22, "zip_code":"28", "city_code":"28850", "title":"Vernouillet", "city":"vernouillet", "adress":"Centre Commercial Plein Sud, 16 rue de Rome", "phone_number":"02 37 64 83 20"},
 {"id":23, "zip_code":"30", "city_code":"30000", "title":"Nîmes", "city":"nîmes", "adress":"Ville Active, 230 Avenue Jean Prouve", "phone_number":"04 66 04 39 39"},
 {"id":24, "zip_code":"31", "city_code":"31130", "title":"Balma", "city":"balma", "adress":"16 Avenue Jean Rene Lagasse", "phone_number":"05 62 16 47 47"},
 {"id":25, "zip_code":"31", "city_code":"31770", "title":"Colomiers", "city":"colomiers", "adress":"ZAC du Perget, 2 rue Marie Curie", "phone_number":"05 34 36 13 00"},
 {"id":26, "zip_code":"31", "city_code":"31120", "title":"Roques sur Garonne", "city":"roques sur garonne", "adress":"Les Carreaux, Allee Fraixinet", "phone_number":"05 61 41 42 43"},
 {"id":27, "zip_code":"33", "city_code":"33380", "title":"Biganos", "city":"biganos", "adress":"Lieu Dit du Moulin de la Cassadote", "phone_number":"05 57 17 08 80"},
 {"id":28, "zip_code":"33", "city_code":"33300", "title":"Bordeaux", "city":"bordeaux", "adress":"Centre Commercial Le Lac, Avenue Quarante Journaux", "phone_number":"05 56 69 23 45"},
 {"id":29, "zip_code":"33", "city_code":"33270", "title":"Bouliac", "city":"bouliac", "adress":"Centre Commercial Hypermarché, rue Gabarre", "phone_number":"05 56 21 84 00"},
 {"id":30, "zip_code":"33", "city_code":"33170", "title":"Gradignan", "city":"gradignan", "adress":"7 Avenue Hippodrome", "phone_number":"05 56 34 39 02"},
 {"id":31, "zip_code":"33", "city_code":"33700", "title":"Mérignac", "city":"mérignac", "adress":"Avenue President J.F Kennedy", "phone_number":"05 56 34 39 02"},
 {"id":32, "zip_code":"34", "city_code":"34130", "title":"St Aunès", "city":"st aunès", "adress":"ECOPARC Departemental St Aunes, Avenue des Saladelles", "phone_number":"04 67 40 95 00"},
 {"id":33, "zip_code":"34", "city_code":"34433", "title":"St Jean De Védas", "city":"st jean de védas", "adress":"ZAC Deves de la Condamine, Centre Commercial Carrefour", "phone_number":"04 67 69 24 25"},
 {"id":34, "zip_code":"35", "city_code":"35830", "title":"Betton", "city":"betton", "adress":"Rocade Nord, Lieu Dit Pluvignon", "phone_number":"02 23 27 40 40"},
 {"id":35, "zip_code":"35", "city_code":"35135", "title":"Chantepie", "city":"chantepie", "adress":"Rocade Sud, Parc D'activités", "phone_number":"02 99 41 66 90"},
 {"id":36, "zip_code":"35", "city_code":"35730", "title":"Pleurtuit", "city":"pleurtuit", "adress":"Centre COmmercial Cap Emeraude, 5 rue Cap Horn", "phone_number":"02 23 15 01 30"},
 {"id":37, "zip_code":"36", "city_code":"36330", "title":"Le Poinçonnet", "city":"le poinçonnet", "adress":"Route de la Chartre", "phone_number":"02 54 61 37 10"},
 {"id":38, "zip_code":"37", "city_code":"37170", "title":"Chambray Lès Tours", "city":"chambray lès tours", "adress":"276 Avenue du Grand Sud", "phone_number":"02 47 80 60 60"},
 {"id":39, "zip_code":"37", "city_code":"37100", "title":"Tours", "city":"tours", "adress":"CCAL de la Petite Arche", "phone_number":"02 47 49 10 10"},
 {"id":40, "zip_code":"38", "city_code":"38120", "title":"St égrève", "city":"st égrève", "adress":"3 rue de la Tremouilliere", "phone_number":"04 57 93 93 38"},
 {"id":41, "zip_code":"42", "city_code":"42400", "title":"St Chamond", "city":"st chamond", "adress":"Route de la Varizelle", "phone_number":"04 77 29 39 00"},
 {"id":42, "zip_code":"42", "city_code":"42270", "title":"St Priest En Jarez", "city":"st priest en jarez", "adress":"3 Avenue PIERRE MENDES", "phone_number":"04 77 92 14 14"},
 {"id":43, "zip_code":"44", "city_code":"44350", "title":"Guérande", "city":"guérande", "adress":"Centre Commercial des Salines, Route de la baule", "phone_number":"02 40 11 18 18"},
 {"id":44, "zip_code":"44", "city_code":"44400", "title":"Rezé", "city":"rezé", "adress":"5 rue Ordronneau", "phone_number":"02 51 70 77 77"},
 {"id":45, "zip_code":"44", "city_code":"44570", "title":"Trignac", "city":"trignac", "adress":"Rue de la fontaine au brun", "phone_number":"02 40 45 80 80"},
 {"id":46, "zip_code":"45", "city_code":"45140", "title":"Ingré", "city":"ingré", "adress":"10 avenue georges pompidou", "phone_number":"02 38 70 54 54"},
 {"id":47, "zip_code":"47", "city_code":"47550", "title":"Boé", "city":"boé", "adress":"7 avenue de lacapelette", "phone_number":"05 53 69 81 40"},
 {"id":48, "zip_code":"49", "city_code":"49300", "title":"Cholet", "city":"cholet", "adress":"ZAC du Cormiers, Boulevard Jacques Cassini", "phone_number":"02 41 71 53 53"},
 {"id":49, "zip_code":"49", "city_code":"49124", "title":"St Barthélemy D Anjou", "city":"st barthélemy d anjou", "adress":"Espace Commercial le Pressoir Franc, 191 routes d Anger", "phone_number":"02 41 27 21 30"},
 {"id":50, "zip_code":"51", "city_code":"51350", "title":"Cormontreuil", "city":"cormontreuil", "adress":"Rue des Laps", "phone_number":"03 26 09 82 60"},
 {"id":51, "zip_code":"51", "city_code":"51100", "title":"Reims", "city":"reims", "adress":"Actipôle la Neuvillette, Rue Docteur robert Creusat", "phone_number":"03 26 77 82 82"},
 {"id":52, "zip_code":"53", "city_code":"53940", "title":"St Berthevin", "city":"st berthevin", "adress":"Zone des Loges, 23 Boulevard Louis Armand", "phone_number":"02 43 98 18 60"},
 {"id":53, "zip_code":"54", "city_code":"54250", "title":"Champigneulles", "city":"champigneulles", "adress":"32 rue de Frouard", "phone_number":"03 83 31 20 67"},
 {"id":54, "zip_code":"54", "city_code":"54180", "title":"Houdemont", "city":"houdemont", "adress":"ZAC de Frocourt", "phone_number":"03 83 57 46 46"},
 {"id":55, "zip_code":"56", "city_code":"56530", "title":"Quéven", "city":"quéven", "adress":"Lieu Dit Le Mourillon", "phone_number":"02 97 80 10 50"},
 {"id":56, "zip_code":"56", "city_code":"56540", "title":"Theix", "city":"theix", "adress":"ZA Atlantheix", "phone_number":"02 97 54 55 55"},
 {"id":57, "zip_code":"57", "city_code":"57600", "title":"Forbach", "city":"forbach", "adress":"Zone industrielle carrefour de l Europe, Avenue de l Europe", "phone_number":"03 87 84 67 67"},
 {"id":58, "zip_code":"57", "city_code":"57280", "title":"Hauconcourt", "city":"hauconcourt", "adress":"ZI d'Hauconcourt", "phone_number":"03 87 51 55 56"},
 {"id":59, "zip_code":"57", "city_code":"57070", "title":"Metz", "city":"metz", "adress":"Metz Technopole, 92 Boulevard Solidarite", "phone_number":"03 87 37 00 00"},
 {"id":60, "zip_code":"59", "city_code":"59200", "title":"Tourcoing", "city":"tourcoing", "adress":"Zone Commerciale Auchan, 343 rue de Roncq", "phone_number":"03 20 69 02 70"},
 {"id":61, "zip_code":"59", "city_code":"59260", "title":"Lezennes", "city":"lezennes", "adress":"Rue Chanzy", "phone_number":"03 28 80 80 80"},
 {"id":62, "zip_code":"59", "city_code":"59650", "title":"Villeneuve D Ascq", "city":"villeune d ascq", "adress":"Centre Commercial Villeneuve 2", "phone_number":"03 20 43 88 88"},
 {"id":63, "zip_code":"59", "city_code":"59960", "title":"Neuville-En-Ferrain", "city":"neuville-En-Ferrain", "adress":"zone Petit Menin", "phone_number":"03 20 69 02 70"},
 {"id":64, "zip_code":"60", "city_code":"60880", "title":"Jaux", "city":"jaux", "adress":"ZAC des Jaux, 154 rue des Metiers", "phone_number":"03 44 90 01 90"},
 {"id":65, "zip_code":"62", "city_code":"62119", "title":"Dourges", "city":"dourges", "adress":"PF Multimodale Delta 3", "phone_number":"03 21 69 07 00"},
 {"id":66, "zip_code":"62", "city_code":"62155", "title":"Merlimont", "city":"merlimont", "adress":"460 rue Auguste Biblocq", "phone_number":"03 21 89 66 00"},
 {"id":67, "zip_code":"62", "city_code":"62880", "title":"Vendin Le Vieil", "city":"vendin le vieil", "adress":"cial Lens 2", "phone_number":"03 21 74 77 01"},
 {"id":68, "zip_code":"63", "city_code":"63100", "title":"Clermont Ferrand", "city":"clermont ferrand", "adress":"Boulevard Saint Jean", "phone_number":"04 73 91 28 26"},
 {"id":69, "zip_code":"64", "city_code":"64100", "title":"Bayonne", "city":"bayonne", "adress":"Avenue du 8 Mai 1945", "phone_number":"05 59 31 47 60"},
 {"id":70, "zip_code":"64", "city_code":"64000", "title":"Pau", "city":"pau", "adress":"Rue de Bizanos", "phone_number":"05 59 90 34 00"},
 {"id":71, "zip_code":"66", "city_code":"66000", "title":"Perpignan", "city":"perpignan", "adress":"Le Mas Galté Centre Commercial Auchan, Avenue D Espagne", "phone_number":"04 68 98 47 47"},
 {"id":72, "zip_code":"66", "city_code":"66600", "title":"Rivesaltes", "city":"rivesaltes", "adress":"Centre Commercial Cap Roussillon, Rue Henri Chretien", "phone_number":"04 68 29 38 00"},
 {"id":73, "zip_code":"67", "city_code":"67200", "title":"Strasbourg", "city":"strasbourg", "adress":"rue Charles Peguy", "phone_number":"03 88 10 47 47"},
 {"id":74, "zip_code":"67", "city_code":"67500", "title":"Haguenau", "city":"haguenau", "adress":"Route du rhin, 1 rue de Taubenhof", "phone_number":"03 88 73 54 54"},
 {"id":75, "zip_code":"67", "city_code":"67540", "title":"Ostwald", "city":"ostwald", "adress":"Centre Commercial La Vigie, 2 rue Alfred Kastler", "phone_number":"03 88 55 12 55"},
 {"id":76, "zip_code":"67", "city_code":"67550", "title":"Vendenheim", "city":"vendenheim", "adress":"5 rue du commerce", "phone_number":"03 88 20 29 51"},
 {"id":77, "zip_code":"68", "city_code":"68790", "title":"Morschwiller Le Bas", "city":"morschwiller le bas", "adress":"Cité Hoffer, rue tachard", "phone_number":"03 89 35 97 00"},
 {"id":78, "zip_code":"69", "city_code":"69500", "title":"Bron", "city":"bron", "adress":"ZAC du Champ du Pont, Centre Commercial Porte des Alpes", "phone_number":"04 26 70 70 69"},
 {"id":79, "zip_code":"69", "city_code":"69160", "title":"Tassin La Demi Lune", "city":"tassin la demi lune", "adress":"12 Avenue Victor Hugo", "phone_number":"04 72 32 58 58"},
 {"id":80, "zip_code":"69", "city_code":"69390", "title":"Vourles", "city":"vourles", "adress":"Les 7 chemins, Avenue du General Brosset", "phone_number":"04 72 15 55 55"},
 {"id":81, "zip_code":"71", "city_code":"71000", "title":"Mâcon", "city":"mâcon", "adress":"ZI Sud, 448 Rue Jacquard", "phone_number":"03 85 29 23 76"},
 {"id":82, "zip_code":"72", "city_code":"72230", "title":"Mulsanne", "city":"mulsanne", "adress":"Route de Tours", "phone_number":"02 43 50 18 50"},
 {"id":83, "zip_code":"74", "city_code":"74330", "title":"Epagny Metz Tessy", "city":"epagny metz tessy", "adress":"Acces route de Rumily, Poisy, 358 route de Closon", "phone_number":"04 50 24 67 67"},
 {"id":84, "zip_code":"74", "city_code":"74100", "title":"Ville La Grand", "city":"ville la grand", "adress":"ZA Ville-la-Grand, rue de Montreal", "phone_number":"04 50 84 63 00"},
 {"id":85, "zip_code":"75", "city_code":"75003", "title":"Paris 03", "city":"paris 03", "adress":"52 rue Rambuteau", "phone_number":"01 44 54 66 66"},
 {"id":86, "zip_code":"75", "city_code":"75008", "title":"Paris 08", "city":"paris 08", "adress":"25 place De La Madeleine", "phone_number":"01 40 28 42 42"},
 {"id":87, "zip_code":"75", "city_code":"75012", "title":"Paris 12", "city":"paris 12", "adress":"139 Avenue Daumesnil", "phone_number":"01 44 87 58 58"},
 {"id":88, "zip_code":"75", "city_code":"75019", "title":"Paris 19", "city":"paris 19", "adress":"159 boulevard Macdonald", "phone_number":"01 40 05 25 25"},
 {"id":89, "zip_code":"76", "city_code":"76230", "title":"Isneauville", "city":"isneauville", "adress":"Impasse de la Ronce", "phone_number":"02 35 59 66 00"},
 {"id":90, "zip_code":"76", "city_code":"76290", "title":"Montivilliers", "city":"montivilliers", "adress":"Gal Marchande La Lezarde", "phone_number":"02 32 79 55 55"},
 {"id":91, "zip_code":"76", "city_code":"76410", "title":"Tourville La Riviere", "city":"tourville la riviere", "adress":"Le Clos aux Antes, Galerie Marchande Carrefour", "phone_number":"02 35 77 56 56"},
 {"id":92, "zip_code":"77", "city_code":"77185", "title":"Lognes", "city":"lognes", "adress":"Boulevard Du Sergais", "phone_number":"01 64 11 79 00"},
 {"id":93, "zip_code":"79", "city_code":"79000", "title":"Niort", "city":"niort", "adress":"463 Avenue de Limoges", "phone_number":"05 49 25 47 47"},
 {"id":94, "zip_code":"80", "city_code":"80080", "title":"Amiens", "city":"amiens", "adress":"Centre Commercial Carrefour, Rue de Doullens", "phone_number":"03 22 66 23 00"},
 {"id":95, "zip_code":"80", "city_code":"80330", "title":"Longueau", "city":"longueau", "adress":"2 passage du rayon vert, poles Jules Verne", "phone_number":"03 22 50 31 31"},
 {"id":96, "zip_code":"81", "city_code":"81000", "title":"Albi", "city":"albi", "adress":"Avenue de saint Juery", "phone_number":"05 81 40 22 00"},
 {"id":97, "zip_code":"83", "city_code":"83160", "title":"La Valette Du Var", "city":"la valette du var", "adress":"ZA des Espaluns, Lieu Dit Espaluns", "phone_number":"04 94 08 69 08"},
 {"id":98, "zip_code":"84", "city_code":"84130", "title":"Le Pontet", "city":"le pontet", "adress":"Centre Commercial Avignon Nord, 193 Avenue Isaac Newton", "phone_number":"04 32 73 02 00"},
 {"id":99, "zip_code":"85", "city_code":"85000", "title":"La Roche Sur Yon", "city":"la roche sur yon", "adress":"ZAC La Roche Sud, Route de la Tranche", "phone_number":"02 51 08 02 10"},
 {"id":100, "zip_code":"86", "city_code":"86360", "title":"Chasseneuil Du Poitou", "city":"chasseneuil du poitou", "adress":"Espace Commercial Les Portes du Futur, 2 allée du Haut Poitou - RN 10", "phone_number":"05 49 62 81 81"},
 {"id":101, "zip_code":"87", "city_code":"87280", "title":"Limoges", "city":"limoges", "adress":"18 rue Amedee Gordini", "phone_number":"05 55 37 59 21"},
 {"id":102, "zip_code":"90", "city_code":"90400", "title":"Andelnans", "city":"andelnans", "adress":"4 rue des Pres", "phone_number":"03 84 54 57 57"},
 {"id":103, "zip_code":"92", "city_code":"92230", "title":"Gennevilliers", "city":"gennevilliers", "adress":"121 Avenues du Vieux Chemins de Saint Denis", "phone_number":"01 41 47 71 00"},
 {"id":104, "zip_code":"92", "city_code":"92500", "title":"Rueil Malmaison", "city":"rueil malmaison", "adress":"58 Avenue de Fouilleuse", "phone_number":"01 41 29 35 35"},
 {"id":105, "zip_code":"93", "city_code":"93110", "title":"Rosny Sous Bois", "city":"rosny sous bois", "adress":"7 rue de Lisbonne", "phone_number":"01 48 94 75 89"},
 {"id":106, "zip_code":"93", "city_code":"93400", "title":"Saint-Ouen", "city":"saint-ouen", "adress":"9 rue Ardoin", "phone_number":"01 49 21 40 40"},
 {"id":107, "zip_code":"95", "city_code":"95560", "title":"Montsoult", "city":"montsoult", "adress":"Route Nationale 1", "phone_number":"01 34 08 33 66"},
 {"id":108, "zip_code":"20", "city_code":"20000", "title":"Ajaccio", "city":"ajaccion", "adress":"route de Mezzavia", "phone_number":"04 95 24 62 24"}
]